NORAD_CAT_ID,OBJECT_NAME,OBJECT_TYPE,EPOCH,MEAN_MOTION,ECCENTRICITY,INCLINATION,RA_OF_ASC_NODE,ARG_OF_PERICENTER,MEAN_ANOMALY,BSTAR,MEAN_MOTION_DOT,MEAN_MOTION_DDOT,TLE_LINE0,TLE_LINE1,TLE_LINE2,SEMIMAJOR_AXIS,PERIOD,APOGEE,PERIGEE,DECAYED
53796.0,STARLINK-4721,PAYLOAD,2023-07-27 08:10:58,15.08836354,9.3e-05,53.2148,227.0052,91.5558,268.554,-1.5177e-05,-5.29e-06,0.0,0 STARLINK-4721,1 53796U 22111Z   23208.34095092 -.00000529  00000-0 -15177-4 0  9997,2 53796  53.2148 227.0052 0000930  91.5558 268.5540 15.08836354 48878,6917.892,95.438,540.4,539.113,0.0
53796.0,STARLINK-4721,PAYLOAD,2023-07-27 11:21:44,15.08835587,9.23e-05,53.2147,226.4107,91.1967,268.9131,-2.1798e-05,-6.35e-06,0.0,0 STARLINK-4721,1 53796U 22111Z   23208.47343184 -.00000635  00000-0 -21798-4 0  9993,2 53796  53.2147 226.4107 0000923  91.1967 268.9131 15.08835587 49646,6917.894,95.438,540.397,539.12,0.0
53796.0,STARLINK-4721,PAYLOAD,2023-07-27 17:43:17,15.08836527,9.23e-05,53.2148,225.2213,91.0112,269.0986,-1.2859e-05,-4.92e-06,0.0,0 STARLINK-4721,1 53796U 22111Z   23208.73839133 -.00000492  00000-0 -12859-4 0  9995,2 53796  53.2148 225.2213 0000923  91.0112 269.0986 15.08836527 49682,6917.891,95.438,540.395,539.117,0.0
53796.0,STARLINK-4721,PAYLOAD,2023-07-28 12:47:54,15.08836928,9.65e-05,53.215,221.6529,90.1358,269.9745,1.8604e-05,8e-08,0.0,0 STARLINK-4721,1 53796U 22111Z   23209.53327107  .00000008  00000-0  18604-4 0  9992,2 53796  53.2150 221.6529 0000965  90.1358 269.9745 15.08836928 49804,6917.89,95.438,540.422,539.087,0.0
53796.0,STARLINK-4721,PAYLOAD,2023-07-29 06:17:09,15.0883062,9.64e-05,53.2153,218.3813,87.686,272.4242,-1.6654e-06,-3.14e-06,0.0,0 STARLINK-4721,1 53796U 22111Z   23210.26191783 -.00000314  00000-0 -16654-5 0  9999,2 53796  53.2153 218.3813 0000964  87.6860 272.4242 15.08830620 49167,6917.909,95.438,540.441,539.107,0.0
53796.0,STARLINK-4721,PAYLOAD,2023-07-30 09:18:42,15.08838629,0.0001008,53.2154,213.325,89.6905,270.4202,2.2354e-05,6.8e-07,0.0,0 STARLINK-4721,1 53796U 22111Z   23211.38799592  .00000068  00000-0  22354-4 0  9992,2 53796  53.2154 213.3250 0001008  89.6905 270.4202 15.08838629 49330,6917.885,95.438,540.447,539.052,0.0
53796.0,STARLINK-4721,PAYLOAD,2023-07-31 12:20:15,15.08839388,0.0001011,53.2155,208.2706,89.0499,271.0609,7.919e-05,9.73e-06,0.0,0 STARLINK-4721,1 53796U 22111Z   23212.51407322  .00000973  00000-0  79190-4 0  9990,2 53796  53.2155 208.2706 0001011  89.0499 271.0609 15.08839388 49506,6917.882,95.438,540.447,539.048,0.0
53796.0,STARLINK-4721,PAYLOAD,2023-08-01 16:57:12,15.0884071,0.0001079,53.2159,202.9181,87.8007,272.3109,1.2786e-05,-8.4e-07,0.0,0 STARLINK-4721,1 53796U 22111Z   23213.70639576 -.00000084  00000-0  12786-4 0  9992,2 53796  53.2159 202.9181 0001079  87.8007 272.3109 15.08840710 49682,6917.878,95.438,540.49,538.997,0.0
53796.0,STARLINK-4721,PAYLOAD,2023-08-03 02:20:18,15.08833087,0.0001114,53.2158,196.6733,89.6202,270.4918,2.187e-05,6e-07,0.0,0 STARLINK-4721,1 53796U 22111Z   23215.09743818  .00000060  00000-0  21870-4 0  9998,2 53796  53.2158 196.6733 0001114  89.6202 270.4918 15.08833087 49899,6917.902,95.438,540.537,538.996,0.0
53796.0,STARLINK-4721,PAYLOAD,2023-08-04 08:32:37,15.08843441,0.0001173,53.2158,191.0242,87.8982,272.2145,1.8718e-05,1e-07,0.0,0 STARLINK-4721,1 53796U 22111Z   23216.35599445  .00000010  00000-0  18718-4 0  9995,2 53796  53.2158 191.0242 0001173  87.8982 272.2145 15.08843441 50083,6917.87,95.437,540.546,538.923,0.0
53796.0,STARLINK-4721,PAYLOAD,2023-08-05 02:01:53,15.08829507,0.0001286,53.2163,187.7528,81.6375,278.4763,5.2162e-05,5.42e-06,0.0,0 STARLINK-4721,1 53796U 22111Z   23217.08464343  .00000542  00000-0  52162-4 0  9995,2 53796  53.2163 187.7528 0001286  81.6375 278.4763 15.08829507 50194,6917.912,95.438,540.667,538.888,0.0
53796.0,STARLINK-4721,PAYLOAD,2023-08-05 09:58:48,15.08835568,0.0001322,53.2165,186.2656,85.3907,274.7236,9.9661e-05,1.298e-05,0.0,0 STARLINK-4721,1 53796U 22111Z   23217.41583926  .00001298  00000-0  99661-4 0  9995,2 53796  53.2165 186.2656 0001322  85.3907 274.7236 15.08835568 50249,6917.894,95.438,540.673,538.844,0.0
53796.0,STARLINK-4721,PAYLOAD,2023-08-06 08:14:13,15.08829586,0.0001239,53.2164,182.1021,84.0633,276.0501,-0.00010695,-1.989e-05,0.0,0 STARLINK-4721,1 53796U 22111Z   23218.34321103 -.00001989  00000-0 -10695-3 0  9993,2 53796  53.2164 182.1021 0001239  84.0633 276.0501 15.08829586 50386,6917.912,95.438,540.634,538.92,0.0
53796.0,STARLINK-4721,PAYLOAD,2023-08-07 03:18:50,15.08839213,0.0001255,53.2161,178.5343,82.0598,278.0536,-2.8915e-05,-7.48e-06,0.0,0 STARLINK-4721,1 53796U 22111Z   23219.13808695 -.00000748  00000-0 -28915-4 0  9994,2 53796  53.2161 178.5343 0001255  82.0598 278.0536 15.08839213 50507,6917.883,95.438,540.616,538.88,0.0
53796.0,STARLINK-4721,PAYLOAD,2023-08-07 14:26:31,15.08844423,0.0001287,53.2161,176.453,89.869,270.245,0.00010657,1.409e-05,0.0,0 STARLINK-4721,1 53796U 22111Z   23219.60175899  .00001409  00000-0  10657-3 0  9995,2 53796  53.2161 176.4530 0001287  89.8690 270.2450 15.08844423 50570,6917.867,95.437,540.622,538.842,0.0
53796.0,STARLINK-4721,PAYLOAD,2023-08-08 04:45:00,15.08836778,0.0001393,53.2171,173.777,88.1601,271.9551,0.00014584,2.034e-05,0.0,0 STARLINK-4721,1 53796U 22111Z   23220.19792037  .00002034  00000-0  14584-3 0  9998,2 53796  53.2171 173.7770 0001393  88.1601 271.9551 15.08836778 50663,6917.89,95.438,540.719,538.792,0.0
53796.0,STARLINK-4721,PAYLOAD,2023-08-08 23:49:38,15.08832202,0.0001478,53.2169,170.2091,89.1366,270.9795,-8.0435e-06,-4.16e-06,0.0,0 STARLINK-4721,1 53796U 22111Z   23220.99281029 -.00000416  00000-0 -80435-5 0  9994,2 53796  53.2169 170.2091 0001478  89.1366 270.9795 15.08832202 50781,6917.904,95.438,540.792,538.747,0.0
53796.0,STARLINK-4721,PAYLOAD,2023-08-10 06:01:57,15.0884393,0.0001347,53.2167,164.5581,89.1448,270.9698,2.2551e-06,-2.52e-06,0.0,0 STARLINK-4721,1 53796U 22111Z   23222.25136102 -.00000252  00000-0  22551-5 0  9998,2 53796  53.2167 164.5581 0001347  89.1448 270.9698 15.08843930 50978,6917.868,95.437,540.665,538.802,0.0
53796.0,STARLINK-4721,PAYLOAD,2023-08-10 20:20:26,15.08832625,0.0001359,53.2161,161.8815,94.1993,265.9154,4.687e-05,4.58e-06,0.0,0 STARLINK-4721,1 53796U 22111Z   23222.84752622  .00000458  00000-0  46870-4 0  9990,2 53796  53.2161 161.8815 0001359  94.1993 265.9154 15.08832625 51067,6917.903,95.438,540.708,538.828,0.0
53796.0,STARLINK-4721,PAYLOAD,2023-08-12 02:32:45,15.08836374,0.0001245,53.2167,156.2333,96.415,263.6983,2.0441e-05,3.7e-07,0.0,0 STARLINK-4721,1 53796U 22111Z   23224.10608675  .00000037  00000-0  20441-4 0  9998,2 53796  53.2167 156.2333 0001245  96.4150 263.6983 15.08836374 51251,6917.891,95.438,540.618,538.895,0.0
53796.0,STARLINK-4721,PAYLOAD,2023-08-13 05:34:19,15.08831146,0.0001185,53.2173,151.1775,91.8598,268.253,-1.5045e-05,-5.27e-06,0.0,0 STARLINK-4721,1 53796U 22111Z   23225.23217403 -.00000527  00000-0 -15045-4 0  9998,2 53796  53.2173 151.1775 0001185  91.8598 268.2530 15.08831146 51420,6917.907,95.438,540.592,538.953,0.0
53796.0,STARLINK-4721,PAYLOAD,2023-08-14 03:49:43,15.08838841,7.96e-05,53.2176,147.0143,77.7876,282.3205,-5.1543e-05,-1.108e-05,0.0,0 STARLINK-4721,1 53796U 22111Z   23226.15953215 -.00001108  00000-0 -51543-4 0  9997,2 53796  53.2176 147.0143 0000796  77.7876 282.3205 15.08838841 51565,6917.884,95.438,540.3,539.198,0.0
53796.0,STARLINK-4721,PAYLOAD,2023-08-15 17:58:58,15.08840197,0.0001097,53.2162,139.8789,91.2431,268.8687,4.0784e-05,3.61e-06,0.0,0 STARLINK-4721,1 53796U 22111Z   23227.74928974  .00000361  00000-0  40784-4 0  9990,2 53796  53.2162 139.8789 0001097  91.2431 268.8687 15.08840197 51805,6917.88,95.438,540.504,538.986,0.0
53796.0,STARLINK-4721,PAYLOAD,2023-08-17 00:11:18,15.088407,0.0001222,53.2167,134.2277,90.8049,269.3083,2.6651e-05,1.36e-06,0.0,0 STARLINK-4721,1 53796U 22111Z   23229.00785019  .00000136  00000-0  26651-4 0  9999,2 53796  53.2167 134.2277 0001222  90.8049 269.3083 15.08840700 51997,6917.878,95.438,540.589,538.898,0.0
53796.0,STARLINK-4721,PAYLOAD,2023-08-18 03:12:51,15.08836167,0.0001264,53.2167,129.173,88.6874,271.4263,5.715e-06,-1.97e-06,0.0,0 STARLINK-4721,1 53796U 22111Z   23230.13393420 -.00000197  00000-0  57150-5 0  9993,2 53796  53.2167 129.1730 0001264  88.6874 271.4263 15.08836167 52167,6917.892,95.438,540.632,538.883,0.0
53796.0,STARLINK-4721,PAYLOAD,2023-08-20 01:19:03,15.08834998,0.0001204,53.2163,120.5501,80.0649,280.0479,-3.2257e-06,-3.39e-06,0.0,0 STARLINK-4721,1 53796U 22111Z   23232.05489867 -.00000339  00000-0 -32257-5 0  9997,2 53796  53.2163 120.5501 0001204  80.0649 280.0479 15.08834998 52451,6917.896,95.438,540.594,538.928,0.0
53796.0,STARLINK-4721,PAYLOAD,2023-08-21 02:45:13,15.08818762,0.0001356,53.2172,115.7918,82.2374,277.8772,0.00023621,3.471e-05,0.0,0 STARLINK-4721,1 53796U 22111Z   23233.11474226  .00003471  00000-0  23621-3 0  9999,2 53796  53.2172 115.7918 0001356  82.2374 277.8772 15.08818762 52615,6917.945,95.439,540.748,538.872,0.0
53796.0,STARLINK-4721,PAYLOAD,2023-08-21 20:14:28,15.08836888,0.0001213,53.2172,112.5203,87.4108,272.7023,2.0632e-05,4.1e-07,0.0,0 STARLINK-4721,1 53796U 22111Z   23233.84338048  .00000041  00000-0  20632-4 0  9990,2 53796  53.2172 112.5203 0001213  87.4108 272.7023 15.08836888 52725,6917.89,95.438,540.594,538.916,0.0
53796.0,STARLINK-4721,PAYLOAD,2023-08-23 00:51:24,15.08837115,0.0001201,53.2169,107.1675,85.3725,274.7404,1.9828e-05,2.8e-07,0.0,0 STARLINK-4721,1 53796U 22111Z   23235.03570123  .00000028  00000-0  19828-4 0  9995,2 53796  53.2169 107.1675 0001201  85.3725 274.7404 15.08837115 52902,6917.889,95.438,540.585,538.923,0.0
53796.0,STARLINK-4721,PAYLOAD,2023-08-24 00:42:11,15.08840168,0.0001175,53.2167,102.7073,89.2244,270.8883,4.0479e-05,3.56e-06,0.0,0 STARLINK-4721,1 53796U 22111Z   23236.02929865  .00000356  00000-0  40479-4 0  9996,2 53796  53.2167 102.7073 0001175  89.2244 270.8883 15.08840168 53802,6917.88,95.438,540.558,538.932,0.0
